{"type": "FeatureCollection", "features": [{"type": "Feature", "properties": {"norad_id": 24946, "name": "IRIDIUM 33", "group": "iridium-33-debris", "lat": -83.14630137670518, "lon": -79.45723311563756, "alt_km": 779.8441804682543, "timestamp": "2025-12-11T07:02:24.115007+00:00", "meta": {"OBJECT_NAME": "IRIDIUM 33", "OBJECT_ID": "1997-051C", "EPOCH": "2025-12-10T16:25:29.386560", "MEAN_MOTION": 14.35035179, "ECCENTRICITY": 0.00067987, "INCLINATION": 86.387, "RA_OF_ASC_NODE": 69.0843, "ARG_OF_PERICENTER": 207.8274, "MEAN_ANOMALY": 152.2559, "EPHEMERIS_TYPE": 0, "CLASSIFICATION_TYPE": "U", "NORAD_CAT_ID": 24946, "ELEMENT_SET_NO": 999, "REV_AT_EPOCH": 47805, "BSTAR": 0.00019394345, "MEAN_MOTION_DOT": 5.72e-06, "MEAN_MOTION_DDOT": 0}, "tle": {"line1": "1 24946U 97051C   25344.68436790  .00000572  00000+0  19394-3 0  9990", "line2": "2 24946  86.3870  69.0843 0006798 207.8274 152.2559 14.35035179478050"}}, "geometry": {"type": "Point", "coordinates": [-79.45723311563756, -83.14630137670518]}}, {"type": "Feature", "properties": {"norad_id": 33773, "name": "IRIDIUM 33 DEB", "group": "iridium-33-debris", "lat": 1.4556422034227954, "lon": -118.88911410596238, "alt_km": 742.9243130399036, "timestamp": "2025-12-11T07:02:24.115054+00:00", "meta": {"OBJECT_NAME": "IRIDIUM 33 DEB", "OBJECT_ID": "1997-051L", "EPOCH": "2025-12-10T11:54:46.043136", "MEAN_MOTION": 14.43249294, "ECCENTRICITY": 0.00122729, "INCLINATION": 86.4013, "RA_OF_ASC_NODE": 61.5401, "ARG_OF_PERICENTER": 153.0085, "MEAN_ANOMALY": 207.1757, "EPHEMERIS_TYPE": 0, "CLASSIFICATION_TYPE": "U", "NORAD_CAT_ID": 33773, "ELEMENT_SET_NO": 999, "REV_AT_EPOCH": 88315, "BSTAR": 0.00048914009, "MEAN_MOTION_DOT": 1.666e-05, "MEAN_MOTION_DDOT": 0}, "tle": {"line1": "1 33773U 97051L   25344.49636624  .00001666  00000+0  48914-3 0  9990", "line2": "2 33773  86.4013  61.5401 0012272 153.0085 207.1757 14.43249294883156"}}, "geometry": {"type": "Point", "coordinates": [-118.88911410596238, 1.4556422034227954]}}, {"type": "Feature", "properties": {"norad_id": 33775, "name": "IRIDIUM 33 DEB", "group": "iridium-33-debris", "lat": -86.13449732398176, "lon": -20.065965639089033, "alt_km": 764.9401499298883, "timestamp": "2025-12-11T07:02:24.115070+00:00", "meta": {"OBJECT_NAME": "IRIDIUM 33 DEB", "OBJECT_ID": "1997-051N", "EPOCH": "2025-12-10T11:30:55.922688", "MEAN_MOTION": 14.41461021, "ECCENTRICITY": 0.00140482, "INCLINATION": 86.3639, "RA_OF_ASC_NODE": 50.5184, "ARG_OF_PERICENTER": 161.5462, "MEAN_ANOMALY": 210.7248, "EPHEMERIS_TYPE": 0, "CLASSIFICATION_TYPE": "U", "NORAD_CAT_ID": 33775, "ELEMENT_SET_NO": 999, "REV_AT_EPOCH": 88108, "BSTAR": 0.00051864419, "MEAN_MOTION_DOT": 1.703e-05, "MEAN_MOTION_DDOT": 0}, "tle": {"line1": "1 33775U 97051N   25344.47981392  .00001703  00000+0  51864-3 0  9995", "line2": "2 33775  86.3639  50.5184 0014048 161.5462 210.7248 14.41461021881080"}}, "geometry": {"type": "Point", "coordinates": [-20.065965639089033, -86.13449732398176]}}, {"type": "Feature", "properties": {"norad_id": 33776, "name": "IRIDIUM 33 DEB", "group": "iridium-33-debris", "lat": 22.28142407216359, "lon": -100.09333746387156, "alt_km": 756.1403982040556, "timestamp": "2025-12-11T07:02:24.115084+00:00", "meta": {"OBJECT_NAME": "IRIDIUM 33 DEB", "OBJECT_ID": "1997-051P", "EPOCH": "2025-12-10T17:44:33.475776", "MEAN_MOTION": 14.38229713, "ECCENTRICITY": 0.00141135, "INCLINATION": 86.4038, "RA_OF_ASC_NODE": 81.6159, "ARG_OF_PERICENTER": 197.0601, "MEAN_ANOMALY": 333.7153, "EPHEMERIS_TYPE": 0, "CLASSIFICATION_TYPE": "U", "NORAD_CAT_ID": 33776, "ELEMENT_SET_NO": 999, "REV_AT_EPOCH": 88053, "BSTAR": 0.00049885239, "MEAN_MOTION_DOT": 1.536e-05, "MEAN_MOTION_DDOT": 0}, "tle": {"line1": "1 33776U 97051P   25344.73927634  .00001536  00000+0  49885-3 0  9998", "line2": "2 33776  86.4038  81.6159 0014113 197.0601 333.7153 14.38229713880530"}}, "geometry": {"type": "Point", "coordinates": [-100.09333746387156, 22.28142407216359]}}, {"type": "Feature", "properties": {"norad_id": 33777, "name": "IRIDIUM 33 DEB", "group": "iridium-33-debris", "lat": -35.00613119680183, "lon": -141.62533587399255, "alt_km": 711.0625517788039, "timestamp": "2025-12-11T07:02:24.115097+00:00", "meta": {"OBJECT_NAME": "IRIDIUM 33 DEB", "OBJECT_ID": "1997-051Q", "EPOCH": "2025-12-10T21:48:19.864800", "MEAN_MOTION": 14.55591731, "ECCENTRICITY": 0.00050859, "INCLINATION": 86.3785, "RA_OF_ASC_NODE": 35.9997, "ARG_OF_PERICENTER": 257.3143, "MEAN_ANOMALY": 102.7497, "EPHEMERIS_TYPE": 0, "CLASSIFICATION_TYPE": "U", "NORAD_CAT_ID": 33777, "ELEMENT_SET_NO": 999, "REV_AT_EPOCH": 88507, "BSTAR": 0.0013448592, "MEAN_MOTION_DOT": 5.885e-05, "MEAN_MOTION_DDOT": 0}, "tle": {"line1": "1 33777U 97051Q   25344.90856325  .00005885  00000+0  13449-2 0  9993", "line2": "2 33777  86.3785  35.9997 0005085 257.3143 102.7497 14.55591731885070"}}, "geometry": {"type": "Point", "coordinates": [-141.62533587399255, -35.00613119680183]}}, {"type": "Feature", "properties": {"norad_id": 33850, "name": "IRIDIUM 33 DEB", "group": "iridium-33-debris", "lat": -68.42548652766857, "lon": -139.88713443551285, "alt_km": 757.7728374425842, "timestamp": "2025-12-11T07:02:24.115110+00:00", "meta": {"OBJECT_NAME": "IRIDIUM 33 DEB", "OBJECT_ID": "1997-051T", "EPOCH": "2025-12-10T22:07:09.281280", "MEAN_MOTION": 14.42140546, "ECCENTRICITY": 0.0012029, "INCLINATION": 86.3418, "RA_OF_ASC_NODE": 30.9615, "ARG_OF_PERICENTER": 166.6192, "MEAN_ANOMALY": 313.3926, "EPHEMERIS_TYPE": 0, "CLASSIFICATION_TYPE": "U", "NORAD_CAT_ID": 33850, "ELEMENT_SET_NO": 999, "REV_AT_EPOCH": 88126, "BSTAR": 0.00046416682, "MEAN_MOTION_DOT": 1.547e-05, "MEAN_MOTION_DDOT": 0}, "tle": {"line1": "1 33850U 97051T   25344.92163520  .00001547  00000+0  46417-3 0  9998", "line2": "2 33850  86.3418  30.9615 0012029 166.6192 313.3926 14.42140546881263"}}, "geometry": {"type": "Point", "coordinates": [-139.88713443551285, -68.42548652766857]}}, {"type": "Feature", "properties": {"norad_id": 33853, "name": "IRIDIUM 33 DEB", "group": "iridium-33-debris", "lat": 46.44711046707228, "lon": 166.2250022503278, "alt_km": 934.2130735345536, "timestamp": "2025-12-11T07:02:24.115123+00:00", "meta": {"OBJECT_NAME": "IRIDIUM 33 DEB", "OBJECT_ID": "1997-051W", "EPOCH": "2025-12-10T23:36:33.218784", "MEAN_MOTION": 13.99044488, "ECCENTRICITY": 0.02070297, "INCLINATION": 86.0001, "RA_OF_ASC_NODE": 350.5812, "ARG_OF_PERICENTER": 241.2627, "MEAN_ANOMALY": 135.8914, "EPHEMERIS_TYPE": 0, "CLASSIFICATION_TYPE": "U", "NORAD_CAT_ID": 33853, "ELEMENT_SET_NO": 999, "REV_AT_EPOCH": 85321, "BSTAR": 0.0027417789, "MEAN_MOTION_DOT": 4.78e-05, "MEAN_MOTION_DDOT": 0}, "tle": {"line1": "1 33853U 97051W   25344.98371781  .00004780  00000+0  27418-2 0  9998", "line2": "2 33853  86.0001 350.5812 0207029 241.2627 135.8914 13.99044488853217"}}, "geometry": {"type": "Point", "coordinates": [166.2250022503278, 46.44711046707228]}}, {"type": "Feature", "properties": {"norad_id": 33860, "name": "IRIDIUM 33 DEB", "group": "iridium-33-debris", "lat": 51.17023091573793, "lon": 32.38503617145007, "alt_km": 661.3548420992183, "timestamp": "2025-12-11T07:02:24.115135+00:00", "meta": {"OBJECT_NAME": "IRIDIUM 33 DEB", "OBJECT_ID": "1997-051AD", "EPOCH": "2025-12-10T21:46:25.478112", "MEAN_MOTION": 14.67328289, "ECCENTRICITY": 0.00077029, "INCLINATION": 86.3835, "RA_OF_ASC_NODE": 28.049, "ARG_OF_PERICENTER": 4.2981, "MEAN_ANOMALY": 168.8384, "EPHEMERIS_TYPE": 0, "CLASSIFICATION_TYPE": "U", "NORAD_CAT_ID": 33860, "ELEMENT_SET_NO": 999, "REV_AT_EPOCH": 88695, "BSTAR": 0.0018172752, "MEAN_MOTION_DOT": 0.00010288, "MEAN_MOTION_DDOT": 0}, "tle": {"line1": "1 33860U 97051AD  25344.90723933  .00010288  00000+0  18173-2 0  9996", "line2": "2 33860  86.3835  28.0490 0007702   4.2981 168.8384 14.67328289886952"}}, "geometry": {"type": "Point", "coordinates": [32.38503617145007, 51.17023091573793]}}, {"type": "Feature", "properties": {"norad_id": 33862, "name": "IRIDIUM 33 DEB", "group": "iridium-33-debris", "lat": 75.20781570995054, "lon": 51.92561509895047, "alt_km": 618.1003363874079, "timestamp": "2025-12-11T07:02:24.115146+00:00", "meta": {"OBJECT_NAME": "IRIDIUM 33 DEB", "OBJECT_ID": "1997-051AF", "EPOCH": "2025-12-10T21:40:26.402304", "MEAN_MOTION": 14.69422734, "ECCENTRICITY": 0.0053598, "INCLINATION": 86.409, "RA_OF_ASC_NODE": 38.34, "ARG_OF_PERICENTER": 75.3524, "MEAN_ANOMALY": 97.2407, "EPHEMERIS_TYPE": 0, "CLASSIFICATION_TYPE": "U", "NORAD_CAT_ID": 33862, "ELEMENT_SET_NO": 999, "REV_AT_EPOCH": 88796, "BSTAR": 0.0020186905, "MEAN_MOTION_DOT": 0.00012244, "MEAN_MOTION_DDOT": 0}, "tle": {"line1": "1 33862U 97051AF  25344.90308336  .00012244  00000+0  20187-2 0  9996", "line2": "2 33862  86.4090  38.3400 0053598  75.3524  97.2407 14.69422734887964"}}, "geometry": {"type": "Point", "coordinates": [51.92561509895047, 75.20781570995054]}}, {"type": "Feature", "properties": {"norad_id": 33866, "name": "IRIDIUM 33 DEB", "group": "iridium-33-debris", "lat": 9.99587745657831, "lon": 94.30092599862388, "alt_km": 884.0543933262416, "timestamp": "2025-12-11T07:02:24.115158+00:00", "meta": {"OBJECT_NAME": "IRIDIUM 33 DEB", "OBJECT_ID": "1997-051AK", "EPOCH": "2025-12-10T18:13:34.881600", "MEAN_MOTION": 14.25264618, "ECCENTRICITY": 0.01143267, "INCLINATION": 86.2998, "RA_OF_ASC_NODE": 93.8733, "ARG_OF_PERICENTER": 167.693, "MEAN_ANOMALY": 345.2596, "EPHEMERIS_TYPE": 0, "CLASSIFICATION_TYPE": "U", "NORAD_CAT_ID": 33866, "ELEMENT_SET_NO": 999, "REV_AT_EPOCH": 86782, "BSTAR": 0.0011367253, "MEAN_MOTION_DOT": 2.881e-05, "MEAN_MOTION_DDOT": 0}, "tle": {"line1": "1 33866U 97051AK  25344.75943150  .00002881  00000+0  11367-2 0  9998", "line2": "2 33866  86.2998  93.8733 0114326 167.6930 345.2596 14.25264618867826"}}, "geometry": {"type": "Point", "coordinates": [94.30092599862388, 9.99587745657831]}}]}